COSMOS 1867 COOLANT
1 39663U 87060AA  20058.25129764 -.00000017 +00000-0 +31351-4 0  9995
2 39663 065.0115 348.3546 0014465 259.7789 100.1665 14.31655137306854
COSMOS 1867 COOLANT
1 39664U 87060AB  20058.80278021 -.00000026  00000-0  27845-4 0  9991
2 39664  65.0086 346.1330 0014946 260.8046  99.1348 14.31646355308121
COSMOS 1867 COOLANT
1 39665U 87060AC  20058.15603519 -.00000010  00000-0  33690-4 0  9992
2 39665  65.0088 347.8501 0014479 258.7928 101.1529 14.31658736308220
COSMOS 1867 COOLANT
1 39666U 87060AD  20058.48832588 -.00000009 +00000-0 +33952-4 0  9998
2 39666 065.0127 344.9580 0014615 258.4530 101.4913 14.31962520306955
COSMOS 1867 COOLANT
1 39667U 87060AE  20057.29018085 -.00000020 +00000-0 +29965-4 0  9997
2 39667 065.0157 349.8457 0014175 258.4272 101.5221 14.31861387306828
COSMOS 1867 COOLANT
1 39668U 87060AF  20058.40713849 -.00000032 +00000-0 +25434-4 0  9992
2 39668 065.0124 345.9828 0014196 265.4600 094.4863 14.31861712309601
COSMOS 1867 COOLANT
1 39669U 87060AG  20056.50844833 -.00000031 +00000-0 +25977-4 0  9991
2 39669 065.0160 352.4551 0014017 260.3896 099.5605 14.31828461306703
COSMOS 1867 COOLANT
1 39670U 87060AH  20058.87549797 -.00000028 +00000-0 +27015-4 0  9997
2 39670 065.0130 345.0898 0014417 258.1880 101.7587 14.31831775306983
COSMOS 1867 COOLANT
1 39671U 87060AJ  20058.19523034 -.00000032  00000-0  25418-4 0  9999
2 39671  65.0141 347.8257 0014064 260.7831  99.1663 14.31770055307965
COSMOS 1867 COOLANT
1 39672U 87060AK  20058.18451790 -.00000026  00000-0  27744-4 0  9995
2 39672  65.0083 347.3795 0014811 263.3219  96.6180 14.31711850308046
COSMOS 1867 COOLANT
1 39673U 87060AL  20058.54316142 -.00000032 +00000-0 +25443-4 0  9998
2 39673 065.0141 348.1925 0014602 259.0737 100.8705 14.31636337307249
COSMOS 1867 COOLANT
1 39674U 87060AM  20058.54292346 -.00000016  00000-0  31462-4 0  9998
2 39674  65.0129 347.9376 0013867 262.9208  97.0300 14.31675351307989
COSMOS 1867 COOLANT
1 39675U 87060AN  20058.17200977 -.00000008 +00000-0 +34308-4 0  9990
2 39675 065.0103 347.3418 0014696 263.0217 096.9196 14.31764844306926
COSMOS 1867 COOLANT
1 39676U 87060AP  20058.15820366 -.00000006  00000-0  35249-4 0  9992
2 39676  65.0128 348.3064 0014193 258.4896 101.4595 14.31706628307938
COSMOS 1867 COOLANT
1 39677U 87060AQ  20058.31019296 -.00000023 +00000-0 +29113-4 0  9995
2 39677 065.0077 347.2653 0014241 260.8220 099.1253 14.31648026306868
EGYPTSAT 2
1 39678U 14021A   20058.79944778 -.00000114  00000-0  15028-4 0  9998
2 39678  51.6209 292.0126 0001153 121.9357 238.1701 14.54168636312033
SL-4 R/B
1 39679U 14021B   20058.85260224 -.00000128 +00000-0 +12088-4 0  9991
2 39679 051.6160 260.6507 0171631 282.5800 075.6024 15.06305340322351
CTS DEB (ARRAY COVER)
1 39688U 76004E   20057.19131964 -.00000059  00000-0  00000+0 0  9993
2 39688   8.9645 300.2408 0032335 111.9164  61.8421  1.00229441 55571
CTS DEB (ARRAY COVER)
1 39689U 76004F   20055.74144445 -.00000070 +00000-0 +00000-0 0  9995
2 39689 008.9998 300.6208 0173557 001.0808 358.9573 01.00309049043782
COSMOS 921 DEB
1 39690U 77055C   20058.87086389  .00000153  00000-0  13156-4 0  9994
2 39690  75.8282 282.4529 0030203  41.8389 329.7401 15.02467252343464
SL-8 DEB
1 39691U 91009DE  20057.43732426  .00000101  00000-0  10683-2 0  9994
2 39691  74.0567 227.8052 0138839 323.8843  35.2874 12.21478465279500
SL-8 DEB
1 39692U 91009DF  20058.81754162  .00000037  00000-0  39216-3 0  9991
2 39692  74.0919 205.5038 0104569 137.6084 223.3099 12.38041021283124
SL-8 DEB
1 39693U 91009DG  20055.66758298 -.00000008  00000-0  65968-4 0  9999
2 39693  74.0343 177.4242 0129718 307.8456  51.0897 12.20827718699845
SL-8 DEB
1 39697U 91009DL  20056.83554375 +.00000000 +00000-0 +14407-3 0  9995
2 39697 074.0575 214.2865 0143054 298.7241 059.9481 12.20616990261317
SL-8 DEB
1 39698U 91009DM  20056.77841646 +.00000077 +00000-0 +83722-3 0  9999
2 39698 074.0461 212.5246 0179789 311.1191 111.0917 12.20997373261135
SL-8 DEB
1 39699U 91009DN  20056.81040306 -.00000032 +00000-0 -17576-3 0  9996
2 39699 074.0989 342.4177 0140772 015.8432 344.6938 12.16865190260315
SL-8 DEB
1 39702U 91009DR  20058.51567373 -.00000084 +00000-0 -67644-3 0  9996
2 39702 074.2326 122.2729 0189142 256.8938 101.0925 12.14703761278005
SL-8 DEB
1 39703U 91009DS  20057.87041551 +.00000013 +00000-0 +24455-3 0  9993
2 39703 073.8542 245.8416 0191386 339.8690 019.4870 12.26870095262581
ARIANE 44LP DEB
1 39704U 92060F   20049.60014122 -.00000265 +00000-0 +28693-3 0  9996
2 39704 007.8973 208.5952 7140455 283.9582 011.5876 02.10844685045165
ARIANE 44LP DEB
1 39705U 92060G   20058.28622535 -.00000206 +00000-0 -42803-2 0  9998
2 39705 007.7063 153.6994 7132133 036.5917 355.3185 02.11855736048625
ARIANE 44LP DEB
1 39706U 92060H   20056.64840654 -.00000144  00000-0  00000+0 0  9991
2 39706   6.9778 231.0866 7042017  92.9649  15.9499  2.16026591126828
SL-16 DEB
1 39707U 92093JX  20057.53529594 +.00000361 +00000-0 +19502-3 0  9995
2 39707 071.1169 350.0605 0103624 112.9752 248.2345 14.16249300302727
SL-16 DEB
1 39708U 92093JY  20058.64376219  .00000281  00000-0  50828-4 0  9991
2 39708  71.2881 164.4025 0083250  39.2259  22.6823 14.73377358905630
SL-16 DEB
1 39709U 92093JZ  20056.20252431  .00000135  00000-0  12974-3 0  9998
2 39709  71.1453 252.0890 0145825 237.0188 121.6836 13.91627655796511
SL-16 DEB
1 39710U 92093KA  20056.80593591 +.00000155 +00000-0 +11323-3 0  9990
2 39710 071.2163 241.0036 0083532 128.7095 232.1534 14.08258934815694
SL-16 DEB
1 39711U 92093KB  20056.24349380 +.00000203 +00000-0 +16207-3 0  9994
2 39711 070.8414 352.4227 0092791 066.4255 294.6571 14.00362129299381
SL-16 DEB
1 39712U 92093KC  20046.22419624  .00000076  00000-0  70480-4 0  9993
2 39712  71.1117 233.3980 0094029  15.2045 345.1864 14.06562753790939
SL-16 DEB
1 39713U 92093KD  20057.95722945 +.00000310 +00000-0 +20111-3 0  9995
2 39713 071.1157 164.0976 0091320 322.2066 037.2662 14.08150877301647
SL-16 DEB
1 39714U 92093KE  20057.83185776 +.00000044 +00000-0 +39301-4 0  9994
2 39714 071.0830 223.9833 0095294 125.9174 235.0843 14.22035737325068
SL-16 DEB
1 39715U 92093KF  20057.38983976 +.00000152 +00000-0 +82312-4 0  9993
2 39715 071.0134 065.8896 0003136 000.7913 063.8634 14.27093680305523
SL-16 DEB
1 39717U 92093KH  20056.81129478 +.00000135 +00000-0 +11992-3 0  9997
2 39717 070.6878 254.3559 0101063 004.1882 356.0052 13.99737385811457
SL-16 DEB
1 39718U 92093KJ  20058.83189019 +.00000527 +00000-0 +19358-3 0  9998
2 39718 071.1942 206.8329 0039783 285.4122 074.2620 14.36717064307211
SL-16 DEB
1 39719U 92093KK  20058.70770927 -.00000001  00000-0  29549-4 0  9991
2 39719  71.2980 175.7262 0097063 146.6845 281.6436 13.95615563319295
SL-16 DEB
1 39720U 92093KL  20058.43596174  .00000258  00000-0  89130-4 0  9998
2 39720  70.7901  82.9668 0033278 225.0285 134.8154 14.44705430330074
SL-16 DEB
1 39721U 92093KM  20058.72765050  .00000176  00000-0  15467-3 0  9992
2 39721  71.1921 171.4954 0127795  25.9405 334.8038 13.94108021857077
SL-16 DEB
1 39722U 92093KN  20058.47005997  .00000088  00000-0  87954-4 0  9995
2 39722  70.8940  80.3381 0105483  39.0062  32.4714 13.99331825319948
SL-16 DEB
1 39724U 92093KQ  20057.16139287  .00000212  00000-0  16838-3 0  9993
2 39724  70.8541 354.0124 0087932  66.1247 294.9050 14.00577491902947
SL-16 DEB
1 39725U 92093KR  20058.77465770  .00000230  00000-0  15096-3 0  9996
2 39725  71.1763 215.9344 0094269 212.9959 146.5258 14.09611132322497
SL-16 DEB
1 39726U 92093KS  20057.71032972 -.00000013 +00000-0 +23378-4 0  9997
2 39726 071.1561 208.0625 0122591 175.9929 197.3260 13.90532424297396
LUCH 5V
1 39727U 14023A   20058.89563020 -.00000271 +00000-0 +00000-0 0  9997
2 39727 000.7105 317.7658 0003244 065.4983 191.0331 01.00269568539448
KAZSAT 3
1 39728U 14023B   20058.83174319 +.00000055 +00000-0 +00000-0 0  9990
2 39728 000.0233 199.8812 0000546 253.9857 061.1767 01.00283744019389
BREEZE-M R/B
1 39729U 14023C   20058.23853848 -.00000190 +00000-0 +00000-0 0  9997
2 39729 004.6567 062.2956 0602847 157.9143 205.1423 00.92544725019675
BREEZE-M DEB (TANK)
1 39730U 14023D   20056.92111591 -.00000193  00000-0 -38168-4 0  9999
2 39730  47.7619  25.3762 7091385 234.4846  37.9492  2.45098573 51077
KAZEOSAT 1
1 39731U 14024A   20058.85285647 -.00000012 +00000-0 +95014-5 0  9992
2 39731 098.3288 134.6595 0001191 078.3818 281.7499 14.42049573306944
NAVSTAR 70 (USA 251)
1 39741U 14026A   20054.03641057 -.00000038 +00000-0 +00000-0 0  9996
2 39741 056.0721 061.3477 0021253 292.8340 066.9796 02.00554394042287
DELTA 4 R/B
1 39742U 14026B   20055.55653044 -.00000035 +00000-0 +00000-0 0  9991
2 39742 055.8292 066.5247 0012627 085.9162 274.2709 01.93899453038381
COSMOS 2496
1 39761U 14028A   20058.76501842  .00000029  00000-0  13708-3 0  9992
2 39761  82.4444 110.3148 0020520  55.5146 304.7867 12.42873908261689
COSMOS 2497
1 39762U 14028B   20058.81790398 +.00000041 +00000-0 +22653-3 0  9998
2 39762 082.4496 111.0677 0020904 049.1747 311.1144 12.42873653261692
COSMOS 2498
1 39763U 14028C   20058.79609223 +.00000031 +00000-0 +15056-3 0  9990
2 39763 082.4455 110.3973 0021509 049.5127 310.7826 12.42884597261698
BREEZE-KM R/B
1 39764U 14028D   20058.84812652 +.00000034 +00000-0 +87113-4 0  9996
2 39764 082.4448 005.4379 0229163 003.3652 356.8928 12.83511410270221
COSMOS 2499
1 39765U 14028E   20058.88147122 +.00000013 +00000-0 +83053-5 0  9991
2 39765 082.4477 005.9108 0231309 004.6103 355.7055 12.82925565270148
ALOS 2
1 39766U 14029A   20058.86381393 -.00000300 +00000-0 -33250-4 0  9995
2 39766 097.9207 157.0558 0001566 096.1800 263.9579 14.79469594311341
UNIFORM 1
1 39767U 14029B   20058.81954250  .00000061  00000-0  13699-4 0  9996
2 39767  97.8531 154.4457 0005032 332.7885  27.3063 14.83804328312102
